{"type": "FeatureCollection", "features": [ {"type": "Feature", "properties": {"norad_id": 66911, "name": "1998-067XX", "group": "stations", "lat": -15.631512039853348, "lon": 111.07390498484887, "alt_km": 412.92596418197263, "timestamp": "2025-12-16T10:53:44.226934+00:00", "meta": {"OBJECT_NAME": "1998-067XX", "OBJECT_ID": "1998-067XX", "EPOCH": "2025-12-15T13:21:12.839040", "MEAN_MOTION": 15.52435494, "ECCENTRICITY": 0.00044725, "INCLINATION": 51.6293, "RA_OF_ASC_NODE": 128.3487, "ARG_OF_PERICENTER": 225.8375, "MEAN_ANOMALY": 134.2248, "EPHEMERIS_TYPE": 0, "CLASSIFICATION_TYPE": "U", "NORAD_CAT_ID": 66911, "ELEMENT_SET_NO": 999, "REV_AT_EPOCH": 204, "BSTAR": 0.00085850941, "MEAN_MOTION_DOT": 0.00053353, "MEAN_MOTION_DDOT": 0}, "tle": {"line1": "1 66911U 98067XX  25349.55639860  .00053353  00000+0  85851-3 0  9996", "line2": "2 66911  51.6293 128.3487 0004472 225.8375 134.2248 15.52435494  2045"}}, "geometry": {"type": "Point", "coordinates": [111.07390498484887, -15.631512039853348]}}, {"type": "Feature", "properties": {"norad_id": 66912, "name": "1998-067XY", "group": "stations", "lat": -39.73186605087372, "lon": 82.76614374355877, "alt_km": 415.26145950804494, "timestamp": "2025-12-16T10:53:44.226958+00:00", "meta": {"OBJECT_NAME": "1998-067XY", "OBJECT_ID": "1998-067XY", "EPOCH": "2025-12-15T15:02:01.063680", "MEAN_MOTION": 15.51430232, "ECCENTRICITY": 0.00042771, "INCLINATION": 51.6298, "RA_OF_ASC_NODE": 128.066, "ARG_OF_PERICENTER": 239.2298, "MEAN_ANOMALY": 120.827, "EPHEMERIS_TYPE": 0, "CLASSIFICATION_TYPE": "U", "NORAD_CAT_ID": 66912, "ELEMENT_SET_NO": 999, "REV_AT_EPOCH": 205, "BSTAR": 0.00059034446, "MEAN_MOTION_DOT": 0.00035151, "MEAN_MOTION_DDOT": 0}, "tle": {"line1": "1 66912U 98067XY  25349.62640120  .00035151  00000+0  59034-3 0  9996", "line2": "2 66912  51.6298 128.0660 0004277 239.2298 120.8270 15.51430232  2058"}}, "geometry": {"type": "Point", "coordinates": [82.76614374355877, -39.73186605087372]}}]}